{"type": "FeatureCollection", "features": [ {"type": "Feature", "properties": {"norad_id": 34529, "name": "IRIDIUM 33 DEB", "group": "iridium-33-debris", "lat": -60.65322191954859, "lon": 33.38298655922552, "alt_km": 763.4518188833381, "timestamp": "2025-12-02T06:27:53.396886+00:00", "meta": {"OBJECT_NAME": "IRIDIUM 33 DEB", "OBJECT_ID": "1997-051HW", "EPOCH": "2025-12-01T14:04:36.035616", "MEAN_MOTION": 14.40601012, "ECCENTRICITY": 0.00035034, "INCLINATION": 86.3651, "RA_OF_ASC_NODE": 40.1656, "ARG_OF_PERICENTER": 218.3703, "MEAN_ANOMALY": 141.7248, "EPHEMERIS_TYPE": 0, "CLASSIFICATION_TYPE": "U", "NORAD_CAT_ID": 34529, "ELEMENT_SET_NO": 999, "REV_AT_EPOCH": 87981, "BSTAR": 0.00013685472, "MEAN_MOTION_DOT": 4.56e-06, "MEAN_MOTION_DDOT": 0}, "tle": {"line1": "1 34529U 97051HW  25335.58652819  .00000456  00000+0  13685-3 0  9997", "line2": "2 34529  86.3651  40.1656 0003503 218.3703 141.7248 14.40601012879810"}}, "geometry": {"type": "Point", "coordinates": [33.38298655922552, -60.65322191954859]}}, {"type": "Feature", "properties": {"norad_id": 34538, "name": "IRIDIUM 33 DEB", "group": "iridium-33-debris", "lat": 61.37241829928026, "lon": 16.98988057553313, "alt_km": 731.4049151876707, "timestamp": "2025-12-02T06:27:53.396896+00:00", "meta": {"OBJECT_NAME": "IRIDIUM 33 DEB", "OBJECT_ID": "1997-051JF", "EPOCH": "2025-12-01T03:50:51.400896", "MEAN_MOTION": 14.42539104, "ECCENTRICITY": 0.00342662, "INCLINATION": 86.2788, "RA_OF_ASC_NODE": 10.6274, "ARG_OF_PERICENTER": 6.7728, "MEAN_ANOMALY": 58.7322, "EPHEMERIS_TYPE": 0, "CLASSIFICATION_TYPE": "U", "NORAD_CAT_ID": 34538, "ELEMENT_SET_NO": 999, "REV_AT_EPOCH": 87589, "BSTAR": 0.00093333061, "MEAN_MOTION_DOT": 3.135e-05, "MEAN_MOTION_DDOT": 0}, "tle": {"line1": "1 34538U 97051JF  25335.16031714  .00003135  00000+0  93333-3 0  9991", "line2": "2 34538  86.2788  10.6274 0034266   6.7728  58.7322 14.42539104875892"}}, "geometry": {"type": "Point", "coordinates": [16.98988057553313, 61.37241829928026]}}, {"type": "Feature", "properties": {"norad_id": 34540, "name": "IRIDIUM 33 DEB", "group": "iridium-33-debris", "lat": -25.321122797552363, "lon": -49.35678255031024, "alt_km": 658.4957334078636, "timestamp": "2025-12-02T06:27:53.396906+00:00", "meta": {"OBJECT_NAME": "IRIDIUM 33 DEB", "OBJECT_ID": "1997-051JH", "EPOCH": "2025-12-01T16:42:41.050944", "MEAN_MOTION": 14.74936502, "ECCENTRICITY": 0.0014607, "INCLINATION": 86.3093, "RA_OF_ASC_NODE": 312.6552, "ARG_OF_PERICENTER": 200.1252, "MEAN_ANOMALY": 333.6628, "EPHEMERIS_TYPE": 0, "CLASSIFICATION_TYPE": "U", "NORAD_CAT_ID": 34540, "ELEMENT_SET_NO": 999, "REV_AT_EPOCH": 88858, "BSTAR": 0.001678, "MEAN_MOTION_DOT": 0.00011318, "MEAN_MOTION_DDOT": 0}, "tle": {"line1": "1 34540U 97051JH  25335.69630846  .00011318  00000+0  16780-2 0  9995", "line2": "2 34540  86.3093 312.6552 0014607 200.1252 333.6628 14.74936502888580"}}, "geometry": {"type": "Point", "coordinates": [-49.35678255031024, -25.321122797552363]}}, {"type": "Feature", "properties": {"norad_id": 34648, "name": "IRIDIUM 33 DEB", "group": "iridium-33-debris", "lat": 8.242450461948934, "lon": -73.30482400458166, "alt_km": 749.6804863960415, "timestamp": "2025-12-02T06:27:53.396917+00:00", "meta": {"OBJECT_NAME": "IRIDIUM 33 DEB", "OBJECT_ID": "1997-051JZ", "EPOCH": "2025-12-01T03:11:38.418720", "MEAN_MOTION": 14.1087899, "ECCENTRICITY": 0.01868529, "INCLINATION": 86.3903, "RA_OF_ASC_NODE": 286.6295, "ARG_OF_PERICENTER": 334.6513, "MEAN_ANOMALY": 24.5588, "EPHEMERIS_TYPE": 0, "CLASSIFICATION_TYPE": "U", "NORAD_CAT_ID": 34648, "ELEMENT_SET_NO": 999, "REV_AT_EPOCH": 84797, "BSTAR": 0.0079356223, "MEAN_MOTION_DOT": 0.00016788, "MEAN_MOTION_DDOT": 0}, "tle": {"line1": "1 34648U 97051JZ  25335.13308355  .00016788  00000+0  79356-2 0  9994", "line2": "2 34648  86.3903 286.6295 0186852 334.6513  24.5588 14.10878990847973"}}, "geometry": {"type": "Point", "coordinates": [-73.30482400458166, 8.242450461948934]}}, {"type": "Feature", "properties": {"norad_id": 34651, "name": "IRIDIUM 33 DEB", "group": "iridium-33-debris", "lat": -60.78874429141261, "lon": -28.295307393884638, "alt_km": 712.2624909324359, "timestamp": "2025-12-02T06:27:53.396927+00:00", "meta": {"OBJECT_NAME": "IRIDIUM 33 DEB", "OBJECT_ID": "1997-051KC", "EPOCH": "2025-11-29T18:22:04.604448", "MEAN_MOTION": 14.2548519, "ECCENTRICITY": 0.01418643, "INCLINATION": 86.2831, "RA_OF_ASC_NODE": 146.0932, "ARG_OF_PERICENTER": 245.3191, "MEAN_ANOMALY": 113.3174, "EPHEMERIS_TYPE": 0, "CLASSIFICATION_TYPE": "U", "NORAD_CAT_ID": 34651, "ELEMENT_SET_NO": 999, "REV_AT_EPOCH": 85711, "BSTAR": 0.0028410967, "MEAN_MOTION_DOT": 7.476e-05, "MEAN_MOTION_DDOT": 0}, "tle": {"line1": "1 34651U 97051KC  25333.76533107  .00007476  00000+0  28411-2 0  9990", "line2": "2 34651  86.2831 146.0932 0141864 245.3191 113.3174 14.25485190857114"}}, "geometry": {"type": "Point", "coordinates": [-28.295307393884638, -60.78874429141261]}}, {"type": "Feature", "properties": {"norad_id": 34652, "name": "IRIDIUM 33 DEB", "group": "iridium-33-debris", "lat": 5.689682529991673, "lon": -14.969608513059107, "alt_km": 672.7343249398727, "timestamp": "2025-12-02T06:27:53.396938+00:00", "meta": {"OBJECT_NAME": "IRIDIUM 33 DEB", "OBJECT_ID": "1997-051KD", "EPOCH": "2025-12-01T11:25:31.813824", "MEAN_MOTION": 14.61886843, "ECCENTRICITY": 0.00271811, "INCLINATION": 86.3317, "RA_OF_ASC_NODE": 345.0171, "ARG_OF_PERICENTER": 338.4925, "MEAN_ANOMALY": 174.8629, "EPHEMERIS_TYPE": 0, "CLASSIFICATION_TYPE": "U", "NORAD_CAT_ID": 34652, "ELEMENT_SET_NO": 999, "REV_AT_EPOCH": 88319, "BSTAR": 0.0011387306, "MEAN_MOTION_DOT": 5.745e-05, "MEAN_MOTION_DDOT": 0}, "tle": {"line1": "1 34652U 97051KD  25335.47606266  .00005745  00000+0  11387-2 0  9999", "line2": "2 34652  86.3317 345.0171 0027181 338.4925 174.8629 14.61886843883199"}}, "geometry": {"type": "Point", "coordinates": [-14.969608513059107, 5.689682529991673]}}, {"type": "Feature", "properties": {"norad_id": 34690, "name": "IRIDIUM 33 DEB", "group": "iridium-33-debris", "lat": 50.88792881674901, "lon": -142.92520758944076, "alt_km": 701.6966315535219, "timestamp": "2025-12-02T06:27:53.396948+00:00", "meta": {"OBJECT_NAME": "IRIDIUM 33 DEB", "OBJECT_ID": "1997-051KM", "EPOCH": "2025-11-30T04:29:28.709376", "MEAN_MOTION": 14.55018885, "ECCENTRICITY": 0.00120076, "INCLINATION": 86.3793, "RA_OF_ASC_NODE": 42.4459, "ARG_OF_PERICENTER": 66.3956, "MEAN_ANOMALY": 322.5053, "EPHEMERIS_TYPE": 0, "CLASSIFICATION_TYPE": "U", "NORAD_CAT_ID": 34690, "ELEMENT_SET_NO": 999, "REV_AT_EPOCH": 87912, "BSTAR": 0.00049664139, "MEAN_MOTION_DOT": 2.161e-05, "MEAN_MOTION_DDOT": 0}, "tle": {"line1": "1 34690U 97051KM  25334.18713784  .00002161  00000+0  49664-3 0  9991", "line2": "2 34690  86.3793  42.4459 0012007  66.3956 322.5053 14.55018885879125"}}, "geometry": {"type": "Point", "coordinates": [-142.92520758944076, 50.88792881674901]}}, {"type": "Feature", "properties": {"norad_id": 34693, "name": "IRIDIUM 33 DEB", "group": "iridium-33-debris", "lat": 23.396904893120084, "lon": -49.38635332813103, "alt_km": 484.7249735915111, "timestamp": "2025-12-02T06:27:53.396958+00:00", "meta": {"OBJECT_NAME": "IRIDIUM 33 DEB", "OBJECT_ID": "1997-051KQ", "EPOCH": "2025-11-30T23:07:01.388928", "MEAN_MOTION": 15.23975533, "ECCENTRICITY": 0.00160601, "INCLINATION": 86.3054, "RA_OF_ASC_NODE": 309.6565, "ARG_OF_PERICENTER": 71.8143, "MEAN_ANOMALY": 350.1616, "EPHEMERIS_TYPE": 0, "CLASSIFICATION_TYPE": "U", "NORAD_CAT_ID": 34693, "ELEMENT_SET_NO": 999, "REV_AT_EPOCH": 88735, "BSTAR": 0.0041949238, "MEAN_MOTION_DOT": 0.0010311, "MEAN_MOTION_DDOT": 0}, "tle": {"line1": "1 34693U 97051KQ  25334.96321052  .00103110  00000+0  41949-2 0  9996", "line2": "2 34693  86.3054 309.6565 0016060  71.8143 350.1616 15.23975533887350"}}, "geometry": {"type": "Point", "coordinates": [-49.38635332813103, 23.396904893120084]}}, {"type": "Feature", "properties": {"norad_id": 34696, "name": "IRIDIUM 33 DEB", "group": "iridium-33-debris", "lat": -85.38370783306327, "lon": -91.89957514715236, "alt_km": 664.2912058451257, "timestamp": "2025-12-02T06:27:53.396968+00:00", "meta": {"OBJECT_NAME": "IRIDIUM 33 DEB", "OBJECT_ID": "1997-051KT", "EPOCH": "2025-12-01T15:05:30.511104", "MEAN_MOTION": 14.64076144, "ECCENTRICITY": 0.0075021, "INCLINATION": 86.1859, "RA_OF_ASC_NODE": 32.6869, "ARG_OF_PERICENTER": 205.0419, "MEAN_ANOMALY": 287.6306, "EPHEMERIS_TYPE": 0, "CLASSIFICATION_TYPE": "U", "NORAD_CAT_ID": 34696, "ELEMENT_SET_NO": 999, "REV_AT_EPOCH": 86510, "BSTAR": 0.0055989172, "MEAN_MOTION_DOT": 0.00030736, "MEAN_MOTION_DDOT": 0}, "tle": {"line1": "1 34696U 97051KT  25335.62882536  .00030736  00000+0  55989-2 0  9994", "line2": "2 34696  86.1859  32.6869 0075021 205.0419 287.6306 14.64076144865106"}}, "geometry": {"type": "Point", "coordinates": [-91.89957514715236, -85.38370783306327]}}, {"type": "Feature", "properties": {"norad_id": 34765, "name": "IRIDIUM 33 DEB", "group": "iridium-33-debris", "lat": -12.174881782238973, "lon": 36.46264912837481, "alt_km": 763.0986926185851, "timestamp": "2025-12-02T06:27:53.396978+00:00", "meta": {"OBJECT_NAME": "IRIDIUM 33 DEB", "OBJECT_ID": "1997-051LJ", "EPOCH": "2025-12-01T03:58:59.783808", "MEAN_MOTION": 14.40414704, "ECCENTRICITY": 0.00144935, "INCLINATION": 86.3402, "RA_OF_ASC_NODE": 37.727, "ARG_OF_PERICENTER": 253.2379, "MEAN_ANOMALY": 136.4815, "EPHEMERIS_TYPE": 0, "CLASSIFICATION_TYPE": "U", "NORAD_CAT_ID": 34765, "ELEMENT_SET_NO": 999, "REV_AT_EPOCH": 87447, "BSTAR": 0.00046218241, "MEAN_MOTION_DOT": 1.488e-05, "MEAN_MOTION_DDOT": 0}, "tle": {"line1": "1 34765U 97051LJ  25335.16596972  .00001488  00000+0  46218-3 0  9994", "line2": "2 34765  86.3402  37.7270 0014493 253.2379 136.4815 14.40414704874475"}}, "geometry": {"type": "Point", "coordinates": [36.46264912837481, -12.174881782238973]}}]}